{
  "type": "FeatureCollection",
  "features": [
    {
      "type": "Feature",
      "properties": {
        "norad_id": 41877,
        "name": "RESOURCESAT-2A",
        "group": "resource",
        "lat": -7.195503671401452,
        "lon": -123.40831635195396,
        "alt_km": 823.3675020515575,
        "timestamp": "2025-12-13T20:38:50.652326+00:00",
        "meta_object_name": "RESOURCESAT-2A",
        "meta_object_id": "2016-074A",
        "meta_epoch": "2025-12-13T07:56:43.120032",
        "meta_mean_motion": 14.2160036,
        "meta_eccentricity": 0.00011627,
        "meta_inclination": 98.7751,
        "meta_ra_of_asc_node": 57.183,
        "meta_arg_of_pericenter": 251.6687,
        "meta_mean_anomaly": 108.4364,
        "meta_ephemeris_type": 0,
        "meta_classification_type": "U",
        "meta_norad_cat_id": 41877,
        "meta_element_set_no": 999,
        "meta_rev_at_epoch": 46789,
        "meta_bstar": 0.00021865094,
        "meta_mean_motion_dot": 4.35e-06,
        "meta_mean_motion_ddot": 0,
        "tle_line1": "1 41877U 16074A   25347.33105463  .00000435  00000+0  21865-3 0  9997",
        "tle_line2": "2 41877  98.7751  57.1830 0001162 251.6687 108.4364 14.21600360467898"
      },
      "geometry": {
        "type": "Point",
        "coordinates": [
          -123.40831635195396,
          -7.195503671401452
        ]
      }
    },
    {
      "type": "Feature",
      "properties": {
        "norad_id": 41948,
        "name": "CARTOSAT-2D",
        "group": "resource",
        "lat": -46.4562225117433,
        "lon": -142.56180325136447,
        "alt_km": 513.6503637911501,
        "timestamp": "2025-12-13T20:38:50.652336+00:00",
        "meta_object_name": "CARTOSAT-2D",
        "meta_object_id": "2017-008A",
        "meta_epoch": "2025-12-13T07:00:22.898880",
        "meta_mean_motion": 15.19269558,
        "meta_eccentricity": 0.00047132,
        "meta_inclination": 97.4391,
        "meta_ra_of_asc_node": 44.7804,
        "meta_arg_of_pericenter": 160.6281,
        "meta_mean_anomaly": 199.5133,
        "meta_ephemeris_type": 0,
        "meta_classification_type": "U",
        "meta_norad_cat_id": 41948,
        "meta_element_set_no": 999,
        "meta_rev_at_epoch": 48935,
        "meta_bstar": 0.00036163647,
        "meta_mean_motion_dot": 7.563e-05,
        "meta_mean_motion_ddot": 0,
        "tle_line1": "1 41948U 17008A   25347.29193170  .00007563  00000+0  36164-3 0  9998",
        "tle_line2": "2 41948  97.4391  44.7804 0004713 160.6281 199.5133 15.19269558489358"
      },
      "geometry": {
        "type": "Point",
        "coordinates": [
          -142.56180325136447,
          -46.4562225117433
        ]
      }
    },
    {
      "type": "Feature",
      "properties": {
        "norad_id": 42063,
        "name": "SENTINEL-2B",
        "group": "resource",
        "lat": -12.844098368224452,
        "lon": -121.68060475744926,
        "alt_km": 793.6054604660358,
        "timestamp": "2025-12-13T20:38:50.652347+00:00",
        "meta_object_name": "SENTINEL-2B",
        "meta_object_id": "2017-013A",
        "meta_epoch": "2025-12-13T06:19:20.338176",
        "meta_mean_motion": 14.30816684,
        "meta_eccentricity": 0.00011552,
        "meta_inclination": 98.571,
        "meta_ra_of_asc_node": 59.7016,
        "meta_arg_of_pericenter": 93.5343,
        "meta_mean_anomaly": 266.5972,
        "meta_ephemeris_type": 0,
        "meta_classification_type": "U",
        "meta_norad_cat_id": 42063,
        "meta_element_set_no": 999,
        "meta_rev_at_epoch": 45805,
        "meta_bstar": 0.00013992122,
        "meta_mean_motion_dot": 3.23e-06,
        "meta_mean_motion_ddot": 0,
        "tle_line1": "1 42063U 17013A   25347.26342984  .00000323  00000+0  13992-3 0  9990",
        "tle_line2": "2 42063  98.5710  59.7016 0001155  93.5343 266.5972 14.30816684458054"
      },
      "geometry": {
        "type": "Point",
        "coordinates": [
          -121.68060475744926,
          -12.844098368224452
        ]
      }
    },
    {
      "type": "Feature",
      "properties": {
        "norad_id": 42767,
        "name": "CARTOSAT-2E",
        "group": "resource",
        "lat": 42.07661618008133,
        "lon": -127.777873870611,
        "alt_km": 504.97209803484475,
        "timestamp": "2025-12-13T20:38:50.652357+00:00",
        "meta_object_name": "CARTOSAT-2E",
        "meta_object_id": "2017-036C",
        "meta_epoch": "2025-12-13T07:23:53.829888",
        "meta_mean_motion": 15.19210885,
        "meta_eccentricity": 0.00021017,
        "meta_inclination": 97.4555,
        "meta_ra_of_asc_node": 44.8874,
        "meta_arg_of_pericenter": 234.8313,
        "meta_mean_anomaly": 125.2725,
        "meta_ephemeris_type": 0,
        "meta_classification_type": "U",
        "meta_norad_cat_id": 42767,
        "meta_element_set_no": 999,
        "meta_rev_at_epoch": 46992,
        "meta_bstar": 0.00046833274,
        "meta_mean_motion_dot": 9.798e-05,
        "meta_mean_motion_ddot": 0,
        "tle_line1": "1 42767U 17036C   25347.30826192  .00009798  00000+0  46833-3 0  9994",
        "tle_line2": "2 42767  97.4555  44.8874 0002101 234.8313 125.2725 15.19210885469920"
      },
      "geometry": {
        "type": "Point",
        "coordinates": [
          -127.777873870611,
          42.07661618008133
        ]
      }
    },
    {
      "type": "Feature",
      "properties": {
        "norad_id": 42920,
        "name": "FORMOSAT-5",
        "group": "resource",
        "lat": -79.68751474834175,
        "lon": 114.99403428584377,
        "alt_km": 722.9501642223549,
        "timestamp": "2025-12-13T20:38:50.652368+00:00",
        "meta_object_name": "FORMOSAT-5",
        "meta_object_id": "2017-049A",
        "meta_epoch": "2025-12-13T06:08:15.027936",
        "meta_mean_motion": 14.51006185,
        "meta_eccentricity": 0.000987,
        "meta_inclination": 98.2453,
        "meta_ra_of_asc_node": 61.5645,
        "meta_arg_of_pericenter": 293.7257,
        "meta_mean_anomaly": 66.2902,
        "meta_ephemeris_type": 0,
        "meta_classification_type": "U",
        "meta_norad_cat_id": 42920,
        "meta_element_set_no": 999,
        "meta_rev_at_epoch": 43971,
        "meta_bstar": 0.00011654669,
        "meta_mean_motion_dot": 4.17e-06,
        "meta_mean_motion_ddot": 0,
        "tle_line1": "1 42920U 17049A   25347.25572949  .00000417  00000+0  11655-3 0  9994",
        "tle_line2": "2 42920  98.2453  61.5645 0009870 293.7257  66.2902 14.51006185439716"
      },
      "geometry": {
        "type": "Point",
        "coordinates": [
          114.99403428584377,
          -79.68751474834175
        ]
      }
    },
    {
      "type": "Feature",
      "properties": {
        "norad_id": 42969,
        "name": "SENTINEL-5P",
        "group": "resource",
        "lat": -5.027091652712851,
        "lon": 105.65563278306608,
        "alt_km": 830.6177213052397,
        "timestamp": "2025-12-13T20:38:50.652392+00:00",
        "meta_object_name": "SENTINEL-5P",
        "meta_object_id": "2017-064A",
        "meta_epoch": "2025-12-13T06:14:43.993824",
        "meta_mean_motion": 14.19517847,
        "meta_eccentricity": 9.684e-05,
        "meta_inclination": 98.7785,
        "meta_ra_of_asc_node": 285.8398,
        "meta_arg_of_pericenter": 89.1982,
        "meta_mean_anomaly": 270.9305,
        "meta_ephemeris_type": 0,
        "meta_classification_type": "U",
        "meta_norad_cat_id": 42969,
        "meta_element_set_no": 999,
        "meta_rev_at_epoch": 42318,
        "meta_bstar": 9.3581145e-05,
        "meta_mean_motion_dot": 1.53e-06,
        "meta_mean_motion_ddot": 0,
        "tle_line1": "1 42969U 17064A   25347.26023141  .00000153  00000+0  93581-4 0  9996",
        "tle_line2": "2 42969  98.7785 285.8398 0000968  89.1982 270.9305 14.19517847423180"
      },
      "geometry": {
        "type": "Point",
        "coordinates": [
          105.65563278306608,
          -5.027091652712851
        ]
      }
    },
    {
      "type": "Feature",
      "properties": {
        "norad_id": 42987,
        "name": "SKYSAT-C11",
        "group": "resource",
        "lat": 81.6112265531792,
        "lon": 7.385582641610621,
        "alt_km": 415.8528278402191,
        "timestamp": "2025-12-13T20:38:50.652404+00:00",
        "meta_object_name": "SKYSAT-C11",
        "meta_object_id": "2017-068A",
        "meta_epoch": "2025-12-13T07:49:40.507392",
        "meta_mean_motion": 15.4748574,
        "meta_eccentricity": 0.00010103,
        "meta_inclination": 97.4137,
        "meta_ra_of_asc_node": 124.8318,
        "meta_arg_of_pericenter": 102.798,
        "meta_mean_anomaly": 257.3383,
        "meta_ephemeris_type": 0,
        "meta_classification_type": "U",
        "meta_norad_cat_id": 42987,
        "meta_element_set_no": 999,
        "meta_rev_at_epoch": 45440,
        "meta_bstar": 0.00067060064,
        "meta_mean_motion_dot": 0.00034437,
        "meta_mean_motion_ddot": 0,
        "tle_line1": "1 42987U 17068A   25347.32616328  .00034437  00000+0  67060-3 0  9996",
        "tle_line2": "2 42987  97.4137 124.8318 0001010 102.7980 257.3383 15.47485740454402"
      },
      "geometry": {
        "type": "Point",
        "coordinates": [
          7.385582641610621,
          81.6112265531792
        ]
      }
    }
  ]
}